{"type": "FeatureCollection", "features": [ {"type": "Feature", "properties": {"norad_id": 35744, "name": "IRIDIUM 33 DEB", "group": "iridium-33-debris", "lat": 76.6976066433179, "lon": 127.79960516014752, "alt_km": 646.6759494590033, "timestamp": "2025-12-16T21:38:57.560326+00:00", "meta": {"OBJECT_NAME": "IRIDIUM 33 DEB", "OBJECT_ID": "1997-051RX", "EPOCH": "2025-12-15T09:15:59.013216", "MEAN_MOTION": 14.71036318, "ECCENTRICITY": 0.00204503, "INCLINATION": 86.3289, "RA_OF_ASC_NODE": 324.2409, "ARG_OF_PERICENTER": 182.37, "MEAN_ANOMALY": 177.7423, "EPHEMERIS_TYPE": 0, "CLASSIFICATION_TYPE": "U", "NORAD_CAT_ID": 35744, "ELEMENT_SET_NO": 999, "REV_AT_EPOCH": 87370, "BSTAR": 0.00069819021, "MEAN_MOTION_DOT": 4.322e-05, "MEAN_MOTION_DDOT": 0}, "tle": {"line1": "1 35744U 97051RX  25349.38609969  .00004322  00000+0  69819-3 0  9994", "line2": "2 35744  86.3289 324.2409 0020450 182.3700 177.7423 14.71036318873707"}}, "geometry": {"type": "Point", "coordinates": [127.79960516014752, 76.6976066433179]}}, {"type": "Feature", "properties": {"norad_id": 35797, "name": "IRIDIUM 33 DEB", "group": "iridium-33-debris", "lat": 7.560409562642812, "lon": -31.451430138531485, "alt_km": 627.5582199985483, "timestamp": "2025-12-16T21:38:57.560337+00:00", "meta": {"OBJECT_NAME": "IRIDIUM 33 DEB", "OBJECT_ID": "1997-051SF", "EPOCH": "2025-12-12T05:51:50.415264", "MEAN_MOTION": 14.82743783, "ECCENTRICITY": 0.00133704, "INCLINATION": 86.3362, "RA_OF_ASC_NODE": 330.2007, "ARG_OF_PERICENTER": 149.5686, "MEAN_ANOMALY": 210.6315, "EPHEMERIS_TYPE": 0, "CLASSIFICATION_TYPE": "U", "NORAD_CAT_ID": 35797, "ELEMENT_SET_NO": 999, "REV_AT_EPOCH": 87333, "BSTAR": 0.0026694194, "MEAN_MOTION_DOT": 0.00021655, "MEAN_MOTION_DDOT": 0}, "tle": {"line1": "1 35797U 97051SF  25346.24433351  .00021655  00000+0  26694-2 0  9995", "line2": "2 35797  86.3362 330.2007 0013370 149.5686 210.6315 14.82743783873338"}}, "geometry": {"type": "Point", "coordinates": [-31.451430138531485, 7.560409562642812]}}, {"type": "Feature", "properties": {"norad_id": 35806, "name": "IRIDIUM 33 DEB", "group": "iridium-33-debris", "lat": -67.45756612227547, "lon": 9.935920810310709, "alt_km": 716.2037229476473, "timestamp": "2025-12-16T21:38:57.560347+00:00", "meta": {"OBJECT_NAME": "IRIDIUM 33 DEB", "OBJECT_ID": "1997-051SQ", "EPOCH": "2025-12-16T08:46:37.248096", "MEAN_MOTION": 14.57379748, "ECCENTRICITY": 0.00158634, "INCLINATION": 86.3444, "RA_OF_ASC_NODE": 19.032, "ARG_OF_PERICENTER": 64.1996, "MEAN_ANOMALY": 296.0847, "EPHEMERIS_TYPE": 0, "CLASSIFICATION_TYPE": "U", "NORAD_CAT_ID": 35806, "ELEMENT_SET_NO": 999, "REV_AT_EPOCH": 86377, "BSTAR": 0.00073764812, "MEAN_MOTION_DOT": 3.369e-05, "MEAN_MOTION_DDOT": 0}, "tle": {"line1": "1 35806U 97051SQ  25350.36570889  .00003369  00000+0  73765-3 0  9996", "line2": "2 35806  86.3444  19.0320 0015863  64.1996 296.0847 14.57379748863778"}}, "geometry": {"type": "Point", "coordinates": [9.935920810310709, -67.45756612227547]}}, {"type": "Feature", "properties": {"norad_id": 35809, "name": "IRIDIUM 33 DEB", "group": "iridium-33-debris", "lat": -32.334006056760394, "lon": 155.78406234164856, "alt_km": 642.1374299461186, "timestamp": "2025-12-16T21:38:57.560357+00:00", "meta": {"OBJECT_NAME": "IRIDIUM 33 DEB", "OBJECT_ID": "1997-051ST", "EPOCH": "2025-12-10T16:35:56.421600", "MEAN_MOTION": 14.75629145, "ECCENTRICITY": 0.00097103, "INCLINATION": 86.329, "RA_OF_ASC_NODE": 336.2813, "ARG_OF_PERICENTER": 251.0565, "MEAN_ANOMALY": 108.9602, "EPHEMERIS_TYPE": 0, "CLASSIFICATION_TYPE": "U", "NORAD_CAT_ID": 35809, "ELEMENT_SET_NO": 999, "REV_AT_EPOCH": 86777, "BSTAR": 0.0026432017, "MEAN_MOTION_DOT": 0.00018102, "MEAN_MOTION_DDOT": 0}, "tle": {"line1": "1 35809U 97051ST  25344.69162525  .00018102  00000+0  26432-2 0  9991", "line2": "2 35809  86.3290 336.2813 0009710 251.0565 108.9602 14.75629145867777"}}, "geometry": {"type": "Point", "coordinates": [155.78406234164856, -32.334006056760394]}}, {"type": "Feature", "properties": {"norad_id": 35846, "name": "IRIDIUM 33 DEB", "group": "iridium-33-debris", "lat": -45.897289190966234, "lon": -119.18451386073211, "alt_km": 750.1250665477883, "timestamp": "2025-12-16T21:38:57.560366+00:00", "meta": {"OBJECT_NAME": "IRIDIUM 33 DEB", "OBJECT_ID": "1997-051SW", "EPOCH": "2025-12-13T22:42:58.027680", "MEAN_MOTION": 14.43166074, "ECCENTRICITY": 0.00189778, "INCLINATION": 86.3748, "RA_OF_ASC_NODE": 58.3258, "ARG_OF_PERICENTER": 166.0798, "MEAN_ANOMALY": 194.093, "EPHEMERIS_TYPE": 0, "CLASSIFICATION_TYPE": "U", "NORAD_CAT_ID": 35846, "ELEMENT_SET_NO": 999, "REV_AT_EPOCH": 71346, "BSTAR": 0.00070076496, "MEAN_MOTION_DOT": 2.378e-05, "MEAN_MOTION_DDOT": 0}, "tle": {"line1": "1 35846U 97051SW  25347.94650495  .00002378  00000+0  70076-3 0  9993", "line2": "2 35846  86.3748  58.3258 0018977 166.0798 194.0930 14.43166074713467"}}, "geometry": {"type": "Point", "coordinates": [-119.18451386073211, -45.897289190966234]}}, {"type": "Feature", "properties": {"norad_id": 35848, "name": "IRIDIUM 33 DEB", "group": "iridium-33-debris", "lat": -28.511984288123152, "lon": -163.78271557504627, "alt_km": 634.633953872154, "timestamp": "2025-12-16T21:38:57.560376+00:00", "meta": {"OBJECT_NAME": "IRIDIUM 33 DEB", "OBJECT_ID": "1997-051SY", "EPOCH": "2025-12-14T19:59:10.774176", "MEAN_MOTION": 14.78689372, "ECCENTRICITY": 0.00081927, "INCLINATION": 86.3904, "RA_OF_ASC_NODE": 15.1825, "ARG_OF_PERICENTER": 180.6002, "MEAN_ANOMALY": 179.521, "EPHEMERIS_TYPE": 0, "CLASSIFICATION_TYPE": "U", "NORAD_CAT_ID": 35848, "ELEMENT_SET_NO": 999, "REV_AT_EPOCH": 66721, "BSTAR": 0.0010179652, "MEAN_MOTION_DOT": 7.493e-05, "MEAN_MOTION_DDOT": 0}, "tle": {"line1": "1 35848U 97051SY  25348.83276359  .00007493  00000+0  10180-2 0  9999", "line2": "2 35848  86.3904  15.1825 0008192 180.6002 179.5210 14.78689372667211"}}, "geometry": {"type": "Point", "coordinates": [-163.78271557504627, -28.511984288123152]}}, {"type": "Feature", "properties": {"norad_id": 35850, "name": "IRIDIUM 33 DEB", "group": "iridium-33-debris", "lat": 3.4346130817276532, "lon": 162.1336233443276, "alt_km": 628.7239557104822, "timestamp": "2025-12-16T21:38:57.560386+00:00", "meta": {"OBJECT_NAME": "IRIDIUM 33 DEB", "OBJECT_ID": "1997-051TA", "EPOCH": "2025-12-15T17:14:52.406304", "MEAN_MOTION": 14.78892383, "ECCENTRICITY": 0.00096156, "INCLINATION": 86.3495, "RA_OF_ASC_NODE": 342.8914, "ARG_OF_PERICENTER": 173.8834, "MEAN_ANOMALY": 186.2505, "EPHEMERIS_TYPE": 0, "CLASSIFICATION_TYPE": "U", "NORAD_CAT_ID": 35850, "ELEMENT_SET_NO": 999, "REV_AT_EPOCH": 71401, "BSTAR": 0.0010045188, "MEAN_MOTION_DOT": 7.431e-05, "MEAN_MOTION_DDOT": 0}, "tle": {"line1": "1 35850U 97051TA  25349.71866211  .00007431  00000+0  10045-2 0  9994", "line2": "2 35850  86.3495 342.8914 0009615 173.8834 186.2505 14.78892383714017"}}, "geometry": {"type": "Point", "coordinates": [162.1336233443276, 3.4346130817276532]}}, {"type": "Feature", "properties": {"norad_id": 35915, "name": "IRIDIUM 33 DEB", "group": "iridium-33-debris", "lat": 34.91307425088223, "lon": 158.49763345081598, "alt_km": 617.3796660697726, "timestamp": "2025-12-16T21:38:57.560396+00:00", "meta": {"OBJECT_NAME": "IRIDIUM 33 DEB", "OBJECT_ID": "1997-051TY", "EPOCH": "2025-12-15T17:25:35.441760", "MEAN_MOTION": 14.80816607, "ECCENTRICITY": 0.00112544, "INCLINATION": 86.3436, "RA_OF_ASC_NODE": 341.593, "ARG_OF_PERICENTER": 174.6839, "MEAN_ANOMALY": 185.4504, "EPHEMERIS_TYPE": 0, "CLASSIFICATION_TYPE": "U", "NORAD_CAT_ID": 35915, "ELEMENT_SET_NO": 999, "REV_AT_EPOCH": 8130, "BSTAR": 0.0011378054, "MEAN_MOTION_DOT": 8.81e-05, "MEAN_MOTION_DDOT": 0}, "tle": {"line1": "1 35915U 97051TY  25349.72610465  .00008810  00000+0  11378-2 0  9997", "line2": "2 35915  86.3436 341.5930 0011254 174.6839 185.4504 14.80816607 81301"}}, "geometry": {"type": "Point", "coordinates": [158.49763345081598, 34.91307425088223]}}, {"type": "Feature", "properties": {"norad_id": 35918, "name": "IRIDIUM 33 DEB", "group": "iridium-33-debris", "lat": -38.28874959017279, "lon": -103.1229555346942, "alt_km": 718.7595713837627, "timestamp": "2025-12-16T21:38:57.560406+00:00", "meta": {"OBJECT_NAME": "IRIDIUM 33 DEB", "OBJECT_ID": "1997-051UB", "EPOCH": "2025-12-15T23:56:06.235296", "MEAN_MOTION": 14.51274744, "ECCENTRICITY": 0.00279495, "INCLINATION": 86.4012, "RA_OF_ASC_NODE": 74.4175, "ARG_OF_PERICENTER": 158.8966, "MEAN_ANOMALY": 15.1207, "EPHEMERIS_TYPE": 0, "CLASSIFICATION_TYPE": "U", "NORAD_CAT_ID": 35918, "ELEMENT_SET_NO": 999, "REV_AT_EPOCH": 85254, "BSTAR": 0.00076482664, "MEAN_MOTION_DOT": 3.077e-05, "MEAN_MOTION_DDOT": 0}, "tle": {"line1": "1 35918U 97051UB  25349.99729439  .00003077  00000+0  76483-3 0  9990", "line2": "2 35918  86.4012  74.4175 0027949 158.8966  15.1207 14.51274744852540"}}, "geometry": {"type": "Point", "coordinates": [-103.1229555346942, -38.28874959017279]}}, {"type": "Feature", "properties": {"norad_id": 35929, "name": "IRIDIUM 33 DEB", "group": "iridium-33-debris", "lat": 16.331936053703366, "lon": -48.26664126362016, "alt_km": 547.2343823463689, "timestamp": "2025-12-16T21:38:57.560416+00:00", "meta": {"OBJECT_NAME": "IRIDIUM 33 DEB", "OBJECT_ID": "1997-051UN", "EPOCH": "2025-12-15T15:12:36.400032", "MEAN_MOTION": 15.02615499, "ECCENTRICITY": 0.00177406, "INCLINATION": 86.3319, "RA_OF_ASC_NODE": 311.2578, "ARG_OF_PERICENTER": 28.1531, "MEAN_ANOMALY": 332.0658, "EPHEMERIS_TYPE": 0, "CLASSIFICATION_TYPE": "U", "NORAD_CAT_ID": 35929, "ELEMENT_SET_NO": 999, "REV_AT_EPOCH": 87823, "BSTAR": 0.0017233436, "MEAN_MOTION_DOT": 0.00023096, "MEAN_MOTION_DDOT": 0}, "tle": {"line1": "1 35929U 97051UN  25349.63375463  .00023096  00000+0  17233-2 0  9997", "line2": "2 35929  86.3319 311.2578 0017740  28.1531 332.0658 15.02615499878233"}}, "geometry": {"type": "Point", "coordinates": [-48.26664126362016, 16.331936053703366]}}]}